TITAN 4B R/B            
1 26474U 00047B   25322.80939137  .00004179  00000+0  27034-3 0  9997
2 26474  67.9906 352.0524 0041022 172.6500 187.5260 15.08542875376182
ENVISAT                 
1 27386U 02009A   25322.83678191  .00000194  00000+0  76745-4 0  9990
2 27386  98.3560 274.1880 0001249  81.7362 286.6650 14.38986853243234
IDEFIX & ARIANE 42P R/B 
1 27422U 02021B   25322.80899116  .00000428  00000+0  17944-3 0  9999
2 27422  98.5749 257.8149 0012206 149.1041 211.0862 14.30925748228160
AQUA                    
1 27424U 02022A   25322.86242756  .00001531  00000+0  31692-3 0  9992
2 27424  98.4001 283.3594 0000654  65.6324 323.3038 14.61728727252543
CZ-4B R/B               
1 27432U 02024C   25322.61592014  .00000091  00000+0  70181-4 0  9998
2 27432  98.9037  11.4676 0049722 339.5708 183.8677 14.14520957213532
MIDORI II (ADEOS-II)    
1 27597U 02056A   25322.84225637  .00000396  00000+0  17379-3 0  9991
2 27597  98.7597 275.6779 0001072  26.2865 333.8371 14.29182727194464
H-2A R/B                
1 27601U 02056E   25322.87510860  .00000375  00000+0  14589-3 0  9992
2 27601  98.3028 282.5871 0071139 131.1554 256.0631 14.33651153198230
CZ-4B R/B               
1 28059U 03049C   25322.86859514  .00000558  00000+0  13988-3 0  9999
2 28059  98.6769 308.5330 0047633 208.7448 151.1122 14.54878608170483
CZ-2C R/B               
1 28222U 04012C   25322.79171378  .00033388  00000+0  52376-3 0  9990
2 28222  97.7467  13.4727 0018530   2.2694 357.8639 15.53425054187003
SL-16 R/B               
1 28353U 04021B   25322.79110750  .00000336  00000+0  19947-3 0  9996
2 28353  70.9992 105.2196 0006351 224.9515 135.1094 14.14577621107151
CZ-4B R/B               
1 28415U 04035C   25322.84099315  .00009596  00000+0  36046-3 0  9995
2 28415  97.3639 353.5103 0033824   4.6684 355.4864 15.26848399162983
CZ-2C R/B               
1 28480U 04046B   25322.69719977  .00000235  00000+0  10201-3 0  9991
2 28480  98.1966 239.5725 0140528 122.8259 238.6545 14.26925579 92672
